{
  "type": "FeatureCollection",
  "features": [
    {
      "type": "Feature",
      "properties": {
        "norad_id": 37238,
        "name": "INTELSAT 17 (IS-17)",
        "group": "intelsat",
        "lat": 0.0379026700249309,
        "lon": 138.65245707602728,
        "alt_km": 35797.72330302299,
        "timestamp": "2025-12-26T22:28:05.446958+00:00",
        "meta_object_name": "INTELSAT 17 (IS-17)",
        "meta_object_id": "2010-065B",
        "meta_epoch": "2025-12-26T15:53:27.453984",
        "meta_mean_motion": 1.00272011,
        "meta_eccentricity": 0.0002935,
        "meta_inclination": 0.0297,
        "meta_ra_of_asc_node": 74.8027,
        "meta_arg_of_pericenter": 224.8642,
        "meta_mean_anomaly": 100.0752,
        "meta_ephemeris_type": 0,
        "meta_classification_type": "U",
        "meta_norad_cat_id": 37238,
        "meta_element_set_no": 999,
        "meta_rev_at_epoch": 5151,
        "meta_bstar": 0,
        "meta_mean_motion_dot": 0,
        "meta_mean_motion_ddot": 0,
        "tle_line1": "1 37238U 10065B   25360.66212331  .00000000  00000+0  00000+0 0  9993",
        "tle_line2": "2 37238   0.0297  74.8027 0002935 224.8642 100.0752  1.00272011 51519"
      },
      "geometry": {
        "type": "Point",
        "coordinates": [
          138.65245707602728,
          0.0379026700249309
        ]
      }
    },
    {
      "type": "Feature",
      "properties": {
        "norad_id": 37392,
        "name": "INTELSAT 28 (IS-28)",
        "group": "intelsat",
        "lat": -0.9329291387336124,
        "lon": 41.028081911211245,
        "alt_km": 35796.23174518987,
        "timestamp": "2025-12-26T22:28:05.446970+00:00",
        "meta_object_name": "INTELSAT 28 (IS-28)",
        "meta_object_id": "2011-016A",
        "meta_epoch": "2025-12-26T00:24:38.640960",
        "meta_mean_motion": 1.00271568,
        "meta_eccentricity": 0.00037974,
        "meta_inclination": 1.3569,
        "meta_ra_of_asc_node": 84.9113,
        "meta_arg_of_pericenter": 188.0675,
        "meta_mean_anomaly": 156.2464,
        "meta_ephemeris_type": 0,
        "meta_classification_type": "U",
        "meta_norad_cat_id": 37392,
        "meta_element_set_no": 999,
        "meta_rev_at_epoch": 5154,
        "meta_bstar": 0,
        "meta_mean_motion_dot": -2.03e-06,
        "meta_mean_motion_ddot": 0,
        "tle_line1": "1 37392U 11016A   25360.01711390 -.00000203  00000+0  00000+0 0  9995",
        "tle_line2": "2 37392   1.3569  84.9113 0003797 188.0675 156.2464  1.00271568 51540"
      },
      "geometry": {
        "type": "Point",
        "coordinates": [
          41.028081911211245,
          -0.9329291387336124
        ]
      }
    },
    {
      "type": "Feature",
      "properties": {
        "norad_id": 37834,
        "name": "INTELSAT 18 (IS-18)",
        "group": "intelsat",
        "lat": -0.021728332420585753,
        "lon": -107.3260398101399,
        "alt_km": 35779.4558958557,
        "timestamp": "2025-12-26T22:28:05.446982+00:00",
        "meta_object_name": "INTELSAT 18 (IS-18)",
        "meta_object_id": "2011-056A",
        "meta_epoch": "2025-12-26T17:18:43.560864",
        "meta_mean_motion": 1.00271937,
        "meta_eccentricity": 0.0001974,
        "meta_inclination": 0.0148,
        "meta_ra_of_asc_node": 302.6576,
        "meta_arg_of_pericenter": 348.2305,
        "meta_mean_anomaly": 244.2541,
        "meta_ephemeris_type": 0,
        "meta_classification_type": "U",
        "meta_norad_cat_id": 37834,
        "meta_element_set_no": 999,
        "meta_rev_at_epoch": 5208,
        "meta_bstar": 0,
        "meta_mean_motion_dot": 7.5e-07,
        "meta_mean_motion_ddot": 0,
        "tle_line1": "1 37834U 11056A   25360.72133751  .00000075  00000+0  00000+0 0  9993",
        "tle_line2": "2 37834   0.0148 302.6576 0001974 348.2305 244.2541  1.00271937 52082"
      },
      "geometry": {
        "type": "Point",
        "coordinates": [
          -107.3260398101399,
          -0.021728332420585753
        ]
      }
    },
    {
      "type": "Feature",
      "properties": {
        "norad_id": 38098,
        "name": "INTELSAT 22 (IS-22)",
        "group": "intelsat",
        "lat": 0.04577851672570462,
        "lon": 144.76446905427133,
        "alt_km": 35793.88496878988,
        "timestamp": "2025-12-26T22:28:05.446994+00:00",
        "meta_object_name": "INTELSAT 22 (IS-22)",
        "meta_object_id": "2012-011A",
        "meta_epoch": "2025-12-26T18:08:03.903936",
        "meta_mean_motion": 1.00270656,
        "meta_eccentricity": 0.0001957,
        "meta_inclination": 0.0333,
        "meta_ra_of_asc_node": 53.6679,
        "meta_arg_of_pericenter": 246.1827,
        "meta_mean_anomaly": 139.747,
        "meta_ephemeris_type": 0,
        "meta_classification_type": "U",
        "meta_norad_cat_id": 38098,
        "meta_element_set_no": 999,
        "meta_rev_at_epoch": 545,
        "meta_bstar": 0,
        "meta_mean_motion_dot": 0,
        "meta_mean_motion_ddot": 0,
        "tle_line1": "1 38098U 12011A   25360.75560074  .00000000  00000+0  00000+0 0  9991",
        "tle_line2": "2 38098   0.0333  53.6679 0001957 246.1827 139.7470  1.00270656  5459"
      },
      "geometry": {
        "type": "Point",
        "coordinates": [
          144.76446905427133,
          0.04577851672570462
        ]
      }
    },
    {
      "type": "Feature",
      "properties": {
        "norad_id": 38356,
        "name": "INTELSAT 19 (IS-19)",
        "group": "intelsat",
        "lat": -0.02372838428016546,
        "lon": -121.32011776094029,
        "alt_km": 35775.440167250905,
        "timestamp": "2025-12-26T22:28:05.447006+00:00",
        "meta_object_name": "INTELSAT 19 (IS-19)",
        "meta_object_id": "2012-030A",
        "meta_epoch": "2025-12-26T13:49:38.874432",
        "meta_mean_motion": 1.00271971,
        "meta_eccentricity": 0.000302,
        "meta_inclination": 0.0093,
        "meta_ra_of_asc_node": 344.9581,
        "meta_arg_of_pericenter": 287.7802,
        "meta_mean_anomaly": 196.0025,
        "meta_ephemeris_type": 0,
        "meta_classification_type": "U",
        "meta_norad_cat_id": 38356,
        "meta_element_set_no": 999,
        "meta_rev_at_epoch": 4872,
        "meta_bstar": 0,
        "meta_mean_motion_dot": -3.4e-07,
        "meta_mean_motion_ddot": 0,
        "tle_line1": "1 38356U 12030A   25360.57614438 -.00000034  00000+0  00000+0 0  9991",
        "tle_line2": "2 38356   0.0093 344.9581 0003020 287.7802 196.0025  1.00271971 48724"
      },
      "geometry": {
        "type": "Point",
        "coordinates": [
          -121.32011776094029,
          -0.02372838428016546
        ]
      }
    },
    {
      "type": "Feature",
      "properties": {
        "norad_id": 38740,
        "name": "INTELSAT 20 (IS-20)",
        "group": "intelsat",
        "lat": 0.025574297136390013,
        "lon": 141.19824990592917,
        "alt_km": 35779.044320891524,
        "timestamp": "2025-12-26T22:28:05.447018+00:00",
        "meta_object_name": "INTELSAT 20 (IS-20)",
        "meta_object_id": "2012-043A",
        "meta_epoch": "2025-12-26T02:10:38.891424",
        "meta_mean_motion": 1.00277669,
        "meta_eccentricity": 0.00019573,
        "meta_inclination": 0.0128,
        "meta_ra_of_asc_node": 61.9497,
        "meta_arg_of_pericenter": 128.5096,
        "meta_mean_anomaly": 5.5509,
        "meta_ephemeris_type": 0,
        "meta_classification_type": "U",
        "meta_norad_cat_id": 38740,
        "meta_element_set_no": 999,
        "meta_rev_at_epoch": 4901,
        "meta_bstar": 0,
        "meta_mean_motion_dot": -4e-08,
        "meta_mean_motion_ddot": 0,
        "tle_line1": "1 38740U 12043A   25360.09072791 -.00000004  00000+0  00000+0 0  9996",
        "tle_line2": "2 38740   0.0128  61.9497 0001957 128.5096   5.5509  1.00277669 49010"
      },
      "geometry": {
        "type": "Point",
        "coordinates": [
          141.19824990592917,
          0.025574297136390013
        ]
      }
    },
    {
      "type": "Feature",
      "properties": {
        "norad_id": 38749,
        "name": "INTELSAT 21 (IS-21)",
        "group": "intelsat",
        "lat": 0.015614029588019883,
        "lon": 14.72510980618915,
        "alt_km": 35788.32844131408,
        "timestamp": "2025-12-26T22:28:05.447030+00:00",
        "meta_object_name": "INTELSAT 21 (IS-21)",
        "meta_object_id": "2012-045A",
        "meta_epoch": "2025-12-26T05:54:07.054272",
        "meta_mean_motion": 1.00271929,
        "meta_eccentricity": 0.0001751,
        "meta_inclination": 0.0183,
        "meta_ra_of_asc_node": 334.425,
        "meta_arg_of_pericenter": 292.8678,
        "meta_mean_anomaly": 218.2466,
        "meta_ephemeris_type": 0,
        "meta_classification_type": "U",
        "meta_norad_cat_id": 38749,
        "meta_element_set_no": 999,
        "meta_rev_at_epoch": 4879,
        "meta_bstar": 0,
        "meta_mean_motion_dot": -2.63e-06,
        "meta_mean_motion_ddot": 0,
        "tle_line1": "1 38749U 12045A   25360.24591498 -.00000263  00000+0  00000+0 0  9991",
        "tle_line2": "2 38749   0.0183 334.4250 0001751 292.8678 218.2466  1.00271929 48790"
      },
      "geometry": {
        "type": "Point",
        "coordinates": [
          14.72510980618915,
          0.015614029588019883
        ]
      }
    }
  ]
}